satname,norad_id,inclination_deg,eccentricity,mean_motion_rev_per_day,perigee_km,apogee_km,l1,l2
STARLINK-1320,45572,53.0575,0.0009907,15.436695,428.5402283334597,442.0403531673519,1 45572U 20025AT  25311.06694238  .00069567  00000+0  15124-2 0  9999,2 45572  53.0575 218.7448 0009907  48.9940 311.1920 15.43669500307728
STARLINK-1321,45573,53.0553,0.0001429,15.064068,546.2010876652967,548.1803463268134,1 45573U 20025AU  25311.86161576  .00005127  00000+0  36277-3 0  9997,2 45573  53.0553 263.5239 0001429  98.4041 261.7110 15.06406800306848
STARLINK-1328,45576,53.0523,0.0011601,15.7124344,347.5306920601897,363.1537105030038,1 45576U 20025AX  25311.91668980  .00143040  00000+0  10893-2 0  9999,2 45576  53.0523 236.2503 0011601  70.2563 339.4732 15.71243440  5894
STARLINK-1331,45578,53.0548,0.000173,15.0641468,545.9684887010017,548.3646437349134,1 45578U 20025AZ  25311.57411087  .00005020  00000+0  35550-3 0  9990,2 45578  53.0548 264.8175 0001730  81.7307 278.3878 15.06414680307116
STARLINK-1333,45580,53.0547,0.000135,15.06393192,546.2974986841491,548.1673484285093,1 45580U 20025BB  25311.18248668  .00000896  00000+0  79022-4 0  9992,2 45580  53.0547 276.5726 0001350  97.1097 263.0045 15.06393192306902
STARLINK-1335,45581,53.0554,0.0001537,15.06387482,546.1854921008062,548.3143560412655,1 45581U 20025BC  25311.18709826  .00001156  00000+0  96542-4 0  9997,2 45581  53.0554 266.5553 0001537 104.2777 255.8382 15.06387482307044
STARLINK-1337,45582,53.0543,0.0001471,15.06407358,546.170291364213,548.2077222754197,1 45582U 20025BD  25311.60729420  .00005573  00000+0  39263-3 0  9990,2 45582  53.0543 264.6687 0001471  82.1182 277.9974 15.06407358307105
STARLINK-1347,45586,53.0549,0.0008481,15.32970582,461.1497500955775,472.7603952692625,1 45586U 20025BH  25311.91668980  .00063722  00000+0  19659-2 0  9997,2 45586  53.0549 247.4506 0008481  42.0836 104.6167 15.32970582  5853
STARLINK-1360,45588,53.0416,0.0005007,15.76685946,336.4742117098922,343.2015917764975,1 45588U 20025BK  25311.00003472  .00147495  00000+0  89070-3 0  9993,2 45588  53.0416 168.2968 0005007 148.0124 292.4509 15.76685946  6052
STARLINK-1364,45589,53.0548,0.0001335,15.06406222,546.2679569833354,548.1170199567578,1 45589U 20025BL  25311.61097486  .00012882  00000+0  88197-3 0  9999,2 45589  53.0548 264.6543 0001335  91.5849 268.5293 15.06406222307100
STARLINK-1365,45590,53.0549,0.0001336,15.06397871,546.2928555852377,548.1433104634225,1 45590U 20025BM  25311.69298396  .00001069  00000+0  90683-4 0  9991,2 45590  53.0549 294.2816 0001336  94.6974 265.4168 15.06397871306711
STARLINK-1443,45660,53.0556,0.0001688,15.06387798,546.0799504140068,548.4179607126043,1 45660U 20035D   25311.08112713  .00000908  00000+0  79895-4 0  9994,2 45660  53.0556 257.0333 0001688  99.2950 260.8230 15.06387798300252
STARLINK-1446,45663,53.026,0.0002152,15.34222477,461.7586644726098,464.70318922832575,1 45663U 20035G   25311.75189156  .00023688  00000+0  71390-3 0  9997,2 45663  53.0260 215.4982 0002152  83.4905 276.6341 15.34222477300898
STARLINK-1448,45665,53.0553,0.0001308,15.06395852,546.3184337357825,548.1301082442742,1 45665U 20035J   25311.54922941  .00001872  00000+0  14452-3 0  9990,2 45665  53.0553 254.9270 0001308  96.0172 264.0966 15.06395852300319
STARLINK-1451,45668,53.0551,0.0001562,15.06400948,546.1269134654249,548.2903914472527,1 45668U 20035M   25311.55296167  .00009742  00000+0  67202-3 0  9993,2 45668  53.0551 255.2293 0001562  92.0600 268.0568 15.06400948300329
STARLINK-1452,45669,53.0393,0.0011994,15.27279741,475.71794165686606,492.1787119387873,1 45669U 20035N   25311.75983242  .00050385  00000+0  18571-2 0  9996,2 45669  53.0393 234.2075 0011994  47.7543 312.4470 15.27279741300630
STARLINK-1453,45670,53.0523,0.0001717,15.06406841,546.0015125904747,548.3796700853409,1 45670U 20035P   25311.76210453  .00013963  00000+0  95423-3 0  9999,2 45670  53.0523 223.9741 0001717  94.5646 265.5539 15.06406841300665
STARLINK-1454,45671,53.0548,0.0001578,15.06403671,546.1074886478218,548.2931251018708,1 45671U 20035Q   25311.84042475  .00004593  00000+0  32698-3 0  9990,2 45671  53.0548 253.6262 0001578  81.3199 278.7968 15.06403671300359
STARLINK-1456,45673,53.0541,0.0001688,15.06398053,546.0485253754287,548.3865250631425,1 45673U 20035S   25311.12535868  .00002940  00000+0  21621-3 0  9994,2 45673  53.0541 256.8342 0001688  81.8875 278.2306 15.06398053300264
STARLINK-1457,45674,53.0528,0.0001564,15.22282662,497.8816348270684,500.03278989669525,1 45674U 20035T   25311.91668980  .01579624  00000+0  61513-1 0  9995,2 45674  53.0528 252.8235 0001564 125.2612  43.5396 15.22282662  5790
STARLINK-1458,45675,53.055,0.000183,15.0642286,545.8741702519164,548.4088221815327,1 45675U 20035U   25311.85146249  .00004909  00000+0  34804-3 0  9991,2 45675  53.0550 253.5709 0001830  99.9168 260.2028 15.06422860300335
STARLINK-1460,45676,53.054,0.0001602,15.06405087,546.0865287184897,548.3054054011373,1 45676U 20035V   25311.55661081  .00003164  00000+0  23120-3 0  9996,2 45676  53.0540 254.8946 0001602  83.8087 276.3084 15.06405087300287
STARLINK-1392,45677,53.0544,0.0001511,15.06379278,546.228638848238,548.3214983753733,1 45677U 20035W   25311.83304515 -.00003584  00000+0 -22195-3 0  9993,2 45677  53.0544 253.6564 0001511  96.0680 264.0481 15.06379278300365
STARLINK-1394,45679,53.0542,0.0001484,15.0641069,546.1510779577175,548.206511685622,1 45679U 20035Y   25311.83028944  .00010234  00000+0  70471-3 0  9992,2 45679  53.0542 243.6665 0001484  94.3490 265.7668 15.06410690300500
STARLINK-1402,45685,53.0541,0.0003274,15.2751482,480.99785911855724,485.4906915776555,1 45685U 20035AE  25311.80163809  .00055424  00000+0  20293-2 0  9992,2 45685  53.0541 235.4933 0003274 112.2536 247.8809 15.27514820300627
STARLINK-1404,45686,53.0563,0.0001532,15.06449086,546.0001801508888,548.1220608550111,1 45686U 20035AF  25311.05990019  .00013487  00000+0  92134-3 0  9998,2 45686  53.0563 247.1267 0001532  90.1463 269.9701 15.06449086300398
STARLINK-1413,45689,53.0544,0.0001619,15.064104,546.0584748484544,548.30089239061,1 45689U 20035AJ  25311.54278779  .00004061  00000+0  29128-3 0  9998,2 45689  53.0544 244.9546 0001619  86.3146 273.8028 15.06410400300378
STARLINK-1417,45693,53.0539,0.0001576,15.06401461,546.1156459602826,548.2985144143577,1 45693U 20035AN  25311.53909964  .00012920  00000+0  88462-3 0  9998,2 45693  53.0539 244.9760 0001576  93.7543 266.3626 15.06401461300457
STARLINK-1420,45695,53.0533,0.0001627,15.06401363,546.0806270120211,548.3341340734496,1 45695U 20035AQ  25311.47365426  .00012367  00000+0  84762-3 0  9996,2 45695  53.0533 225.2580 0001627  95.1030 265.0145 15.06401363300733
STARLINK-1422,45696,53.0554,0.0001848,15.06413724,545.8896995337373,548.4492928147238,1 45696U 20035AR  25311.81554642  .00006527  00000+0  45648-3 0  9996,2 45696  53.0554 243.7361 0001848  84.4906 275.6294 15.06413724300496
STARLINK-1351,45697,53.0547,0.0001805,15.06406842,545.9405666433931,548.4406099027592,1 45697U 20035AS  25311.79158926  .00002635  00000+0  19571-3 0  9991,2 45697  53.0547 223.8413 0001805  88.0090 272.1106 15.06406842300782
STARLINK-1398,45699,53.047,0.0005662,15.5287057,404.5071832696449,412.19220079970364,1 45699U 20035AU  25311.66204572  .00118295  00000+0  18516-2 0  9995,2 45699  53.0470 181.7656 0005662 125.0063 235.1478 15.52870570301367
STARLINK-1400,45700,53.0532,0.0001603,15.06444214,545.9659400584096,548.1861633627877,1 45700U 20035AV  25311.76577892  .00023359  00000+0  15800-2 0  9996,2 45700  53.0532 223.9574 0001603  90.0788 270.0385 15.06444214300773
STARLINK-1403,45701,53.0541,0.0001595,15.06398069,546.1128821425345,548.3220702204362,1 45701U 20035AW  25311.79527255  .00005256  00000+0  37150-3 0  9997,2 45701  53.0541 223.8256 0001595 100.6988 259.4181 15.06398069300771
STARLINK-1407,45703,53.0398,0.0012372,15.42038818,431.6573260014311,448.5283539174279,1 45703U 20035AY  25310.97096316  .00057553  00000+0  13241-2 0  9998,2 45703  53.0398 184.5207 0012372  81.7216 278.5191 15.42038818301261
STARLINK-1411,45706,53.052,0.0002599,15.41794413,439.04112551393064,442.58561591662874,1 45706U 20035BB  25311.43532513  .00048526  00000+0  11311-2 0  9993,2 45706  53.0520 209.4833 0002599 132.8082 227.3141 15.41794413300942
STARLINK-1423,45710,53.054,8.1e-05,15.06450661,546.4953529643562,547.6172342779237,1 45710U 20035BF  25311.75471281  .00019812  00000+0  13433-2 0  9990,2 45710  53.0540 224.0078 0000810 102.3319 257.7761 15.06450661300773
STARLINK-1433,45711,53.0541,0.0001792,15.06405113,545.9548677205912,548.4369070274261,1 45711U 20035BG  25311.73630071  .00012653  00000+0  86667-3 0  9999,2 45711  53.0541 224.0891 0001792 100.8611 259.2579 15.06405113300761
STARLINK-1434,45712,53.0498,0.0006364,15.15857736,513.9868341610072,522.7647156208886,1 45712U 20035BH  25311.78716839  .00027587  00000+0  14350-2 0  9993,2 45712  53.0498 219.5459 0006364  85.9333 274.2388 15.15857736300842
STARLINK-1465,45731,53.0548,0.0001639,15.06370238,546.1676961043586,548.4378552628268,1 45731U 20038B   25311.70314216 -.00001208  00000+0 -62265-4 0  9996,2 45731  53.0548  64.2339 0001639  81.9764 278.1411 15.06370238297803
STARLINK-1471,45735,53.0516,5.99e-05,15.41234567,442.05601721428775,442.87312528252187,1 45735U 20038F   25311.55794111  .00027940  00000+0  66934-3 0  9994,2 45735  53.0516   3.4432 0000599 100.2282 259.8790 15.41234567298658
STARLINK-1474,45738,53.0371,0.0004387,15.68009741,361.6385996240415,367.554674117031,1 45738U 20038J   25311.73191978  .00098492  00000+0  86622-3 0  9995,2 45738  53.0371 318.5556 0004387  10.5155 349.5951 15.68009741299298
STARLINK-1475,45739,53.0476,0.0006915,15.81196635,322.418907712844,331.69218900722626,1 45739U 20038K   25311.91668980  .00427030  00000+0  20295-2 0  9995,2 45739  53.0476 283.5596 0006915  52.1083 207.5795 15.81196635  5918
